OBJECT_NAME,OBJECT_ID,EPOCH,MEAN_MOTION,ECCENTRICITY,INCLINATION,RA_OF_ASC_NODE,ARG_OF_PERICENTER,MEAN_ANOMALY,EPHEMERIS_TYPE,CLASSIFICATION_TYPE,NORAD_CAT_ID,ELEMENT_SET_NO,REV_AT_EPOCH,BSTAR,MEAN_MOTION_DOT,MEAN_MOTION_DDOT
INTELSAT 902 (IS-902),2001-039A,2026-06-08T04:35:17.931264,1.00270274,.0004302,6.0957,71.8919,2.9568,200.4399,0,U,26900,999,9060,0,-.268E-5,0
INTELSAT 904 (IS-904),2002-007A,2026-06-08T03:23:38.662944,1.00271575,.00067415,6.8967,69.2917,2.4117,204.2384,0,U,27380,999,5167,0,-.211E-5,0
DIRECTV 5 (TEMPO 1),2002-023A,2026-06-08T05:39:23.383584,1.00271634,.00033735,4.8540,75.4211,11.3765,144.5759,0,U,27426,999,8803,0,-.42E-6,0
INTELSAT 905 (IS-905),2002-027A,2026-06-07T13:05:35.062944,1.00273058,.00040988,6.7285,69.9157,15.2283,229.9944,0,U,27438,999,5126,0,.107E-5,0
GALAXY 3C (G-3C),2002-030A,2026-06-08T06:05:12.584832,1.00271469,.0001798,3.7068,78.0959,31.0124,143.9914,0,U,27445,999,4640,0,-.137E-5,0
INTELSAT 906 (IS-906),2002-041A,2026-06-08T05:07:59.797056,1.00271163,.00046892,5.7810,73.0303,357.9622,326.7445,0,U,27513,999,8693,0,.28E-6,0
GALAXY 13 (HORIZONS-1),2003-044A,2026-06-08T05:49:27.280704,1.00273206,.00020942,1.3971,83.9669,348.6403,121.3781,0,U,27954,999,4648,0,.148E-5,0
INTELSAT 10-02,2004-022A,2026-06-07T21:58:40.430208,1.00271594,.00004465,0.0048,329.6678,189.7889,65.5178,0,U,28358,999,8046,0,.4E-7,0
DIRECTV 8,2005-019A,2026-06-08T05:58:20.743680,1.00271492,.00029507,0.0178,6.0651,75.1721,145.9443,0,U,28659,999,7698,0,.17E-6,0
GALAXY 28 (G-28),2005-022A,2026-06-08T06:24:32.827104,1.00272622,.0002878,3.2766,79.0396,352.8842,253.7651,0,U,28702,999,5188,0,-.184E-5,0
GALAXY 16 (G-16),2006-023A,2026-06-08T06:04:05.192832,1.00271791,.00026844,0.0085,175.0065,262.1468,171.5174,0,U,29236,999,7288,0,-.111E-5,0
DIRECTV 9S,2006-043A,2026-06-08T05:59:24.492192,1.00271530,.00050492,2.3967,81.0099,6.6025,157.6982,0,U,29494,999,5129,0,-.98E-6,0
GALAXY 17 (G-17),2007-016B,2026-06-08T06:07:42.346272,1.00271745,.00048628,2.9486,80.0126,15.4606,168.1122,0,U,31307,999,6971,0,-.191E-5,0
INTELSAT 11 (IS-11),2007-044B,2026-06-08T05:36:43.502976,0.99053764,.00018655,3.5412,78.7777,82.0355,345.1577,0,U,32253,999,6836,0,-.223E-5,0
HORIZONS-2,2007-063B,2026-06-08T06:11:11.607072,1.00272005,.00040049,2.5781,80.7353,355.1169,199.8295,0,U,32388,999,6772,0,-.238E-5,0
DIRECTV 11,2008-013A,2026-06-07T14:39:56.592288,1.00273719,.0000485,0.0327,183.0093,231.4353,322.3798,0,U,32729,999,4549,0,-.111E-5,0
GALAXY 18 (G-18),2008-024A,2026-06-07T23:06:35.902656,1.00272864,.00031775,0.0261,74.3537,12.8322,32.8227,0,U,32951,999,4576,0,.4E-6,0
INTELSAT 25 (IS-25),2008-034A,2026-06-08T04:38:51.700416,0.99020618,.0001899,2.6842,80.4374,32.8806,14.6653,0,U,33153,999,6560,0,-.237E-5,0
GALAXY 19 (G-19),2008-045A,2026-06-08T06:04:35.145120,1.00271915,.00027495,0.0260,86.5553,348.8111,175.4384,0,U,33376,999,6481,0,-.124E-5,0
FM-5,2009-034A,2026-06-07T23:17:04.897248,1.00272680,.00006255,0.0178,289.3820,21.8030,208.3062,0,U,35493,999,4655,0,-.185E-5,0
INTELSAT 14 (IS-14),2009-064A,2026-06-08T06:19:25.817664,1.00270969,.0002803,0.0150,335.8760,117.4459,213.2034,0,U,36097,999,6051,0,-.258E-5,0
INTELSAT 15 (IS-15),2009-067A,2026-06-08T03:31:16.556160,1.00271557,.00023147,0.0157,337.9571,102.1478,314.4095,0,U,36106,999,4113,0,-.17E-5,0
DIRECTV 12,2009-075A,2026-06-07T14:39:04.175136,1.00270450,.00002588,0.0273,150.8162,248.0677,334.1803,0,U,36131,999,4645,0,-.89E-6,0
INTELSAT 16 (IS-16),2010-006A,2026-06-07T19:54:35.421696,1.00270767,.00021695,0.0242,52.7112,38.0062,27.9739,0,U,36397,999,5956,0,-.23E-5,0
XM-5,2010-053A,2026-06-07T23:08:43.199232,1.00269706,.00026119,0.0662,273.0807,283.2447,292.0284,0,U,37185,999,5739,0,-.8E-7,0
INTELSAT 17 (IS-17),2010-065B,2026-06-08T05:08:29.749344,1.00272309,.00025771,0.0098,109.1779,341.8712,308.6807,0,U,37238,999,5315,0,.14E-6,0
INTELSAT 28 (IS-28),2011-016A,2026-06-08T06:23:17.946816,1.00268718,.00038849,1.7822,82.7332,354.5553,243.4889,0,U,37392,999,5319,0,-.209E-5,0
INTELSAT 18 (IS-18),2011-056A,2026-06-08T05:40:58.095264,1.00272260,.00021256,0.0198,322.1359,129.3771,70.3633,0,U,37834,999,5372,0,.69E-6,0
INTELSAT 22 (IS-22),2012-011A,2026-06-08T03:27:31.915296,1.00273351,.00016116,0.0228,63.7498,3.9804,312.7921,0,U,38098,999,709,0,-.44E-6,0
INTELSAT 19 (IS-19),2012-030A,2026-06-07T14:13:00.864768,1.00271459,.00030929,0.0106,32.4422,51.8353,190.9735,0,U,38356,999,5035,0,-.42E-6,0
INTELSAT 20 (IS-20),2012-043A,2026-06-08T01:43:51.277728,1.00266075,.00015763,0.0081,87.6182,100.3071,163.0027,0,U,38740,999,5065,0,-.8E-7,0
