INTELSAT 902 (IS-902)   
1 26900U 01039A   26159.19117976 -.00000268  00000+0  00000+0 0  9999
2 26900   6.0957  71.8919 0004302   2.9568 200.4399  1.00270274 90605
INTELSAT 904 (IS-904)   
1 27380U 02007A   26159.14141971 -.00000211  00000+0  00000+0 0  9993
2 27380   6.8967  69.2917 0006741   2.4117 204.2384  1.00271575 51675
DIRECTV 5 (TEMPO 1)     
1 27426U 02023A   26159.23568731 -.00000042  00000+0  00000+0 0  9991
2 27426   4.8540  75.4211 0003373  11.3765 144.5759  1.00271634 88031
INTELSAT 905 (IS-905)   
1 27438U 02027A   26158.54554471  .00000107  00000+0  00000+0 0  9998
2 27438   6.7285  69.9157 0004098  15.2283 229.9944  1.00273058 51262
GALAXY 3C (G-3C)        
1 27445U 02030A   26159.25361788 -.00000137  00000+0  00000+0 0  9990
2 27445   3.7068  78.0959 0001798  31.0124 143.9914  1.00271469 46407
INTELSAT 906 (IS-906)   
1 27513U 02041A   26159.21388654  .00000028  00000+0  00000+0 0  9993
2 27513   5.7810  73.0303 0004689 357.9622 326.7445  1.00271163 86936
GALAXY 13 (HORIZONS-1)  
1 27954U 03044A   26159.24267686  .00000148  00000+0  00000+0 0  9993
2 27954   1.3971  83.9669 0002094 348.6403 121.3781  1.00273206 46480
INTELSAT 10-02          
1 28358U 04022A   26158.91574572  .00000004  00000+0  00000+0 0  9998
2 28358   0.0048 329.6678 0000446 189.7889  65.5178  1.00271594 80464
DIRECTV 8               
1 28659U 05019A   26159.24885120  .00000017  00000+0  00000+0 0  9994
2 28659   0.0178   6.0651 0002950  75.1721 145.9443  1.00271492 76981
GALAXY 28 (G-28)        
1 28702U 05022A   26159.26704661 -.00000184  00000+0  00000+0 0  9995
2 28702   3.2766  79.0396 0002878 352.8842 253.7651  1.00272622 51889
GALAXY 16 (G-16)        
1 29236U 06023A   26159.25283788 -.00000111  00000+0  00000+0 0  9991
2 29236   0.0085 175.0065 0002684 262.1468 171.5174  1.00271791 72889
DIRECTV 9S              
1 29494U 06043A   26159.24958903 -.00000098  00000+0  00000+0 0  9990
2 29494   2.3967  81.0099 0005049   6.6025 157.6982  1.00271530 51295
GALAXY 17 (G-17)        
1 31307U 07016B   26159.25535123 -.00000191  00000+0  00000+0 0  9997
2 31307   2.9486  80.0126 0004862  15.4606 168.1122  1.00271745 69715
INTELSAT 11 (IS-11)     
1 32253U 07044B   26159.23383684 -.00000223  00000+0  00000+0 0  9996
2 32253   3.5412  78.7777 0001865  82.0355 345.1577  0.99053764 68366
HORIZONS-2              
1 32388U 07063B   26159.25777323 -.00000238  00000+0  00000+0 0  9991
2 32388   2.5781  80.7353 0004004 355.1169 199.8295  1.00272005 67725
DIRECTV 11              
1 32729U 08013A   26158.61107167 -.00000111  00000+0  00000+0 0  9998
2 32729   0.0327 183.0093 0000485 231.4353 322.3798  1.00273719 45495
GALAXY 18 (G-18)        
1 32951U 08024A   26158.96291554  .00000040  00000+0  00000+0 0  9999
2 32951   0.0261  74.3537 0003177  12.8322  32.8227  1.00272864 45762
INTELSAT 25 (IS-25)     
1 33153U 08034A   26159.19365394 -.00000237  00000+0  00000+0 0  9994
2 33153   2.6842  80.4374 0001899  32.8806  14.6653  0.99020618 65606
GALAXY 19 (G-19)        
1 33376U 08045A   26159.25318455 -.00000124  00000+0  00000+0 0  9991
2 33376   0.0260  86.5553 0002749 348.8111 175.4384  1.00271915 64819
FM-5                    
1 35493U 09034A   26158.97019557 -.00000185  00000+0  00000+0 0  9998
2 35493   0.0178 289.3820 0000625  21.8030 208.3062  1.00272680 46558
INTELSAT 14 (IS-14)     
1 36097U 09064A   26159.26349326 -.00000258  00000+0  00000+0 0  9996
2 36097   0.0150 335.8760 0002803 117.4459 213.2034  1.00270969 60510
INTELSAT 15 (IS-15)     
1 36106U 09067A   26159.14671940 -.00000170  00000+0  00000+0 0  9990
2 36106   0.0157 337.9571 0002314 102.1478 314.4095  1.00271557 41132
DIRECTV 12              
1 36131U 09075A   26158.61046499 -.00000089  00000+0  00000+0 0  9992
2 36131   0.0273 150.8162 0000258 248.0677 334.1803  1.00270450 46450
INTELSAT 16 (IS-16)     
1 36397U 10006A   26158.82957664 -.00000230  00000+0  00000+0 0  9998
2 36397   0.0242  52.7112 0002169  38.0062  27.9739  1.00270767 59565
XM-5                    
1 37185U 10053A   26158.96438888 -.00000008  00000+0  00000+0 0  9996
2 37185   0.0662 273.0807 0002611 283.2447 292.0284  1.00269706 57399
INTELSAT 17 (IS-17)     
1 37238U 10065B   26159.21423321  .00000014  00000+0  00000+0 0  9999
2 37238   0.0098 109.1779 0002577 341.8712 308.6807  1.00272309 53153
INTELSAT 28 (IS-28)     
1 37392U 11016A   26159.26617994 -.00000209  00000+0  00000+0 0  9990
2 37392   1.7822  82.7332 0003884 354.5553 243.4889  1.00268718 53193
INTELSAT 18 (IS-18)     
1 37834U 11056A   26159.23678351  .00000069  00000+0  00000+0 0  9999
2 37834   0.0198 322.1359 0002125 129.3771  70.3633  1.00272260 53729
INTELSAT 22 (IS-22)     
1 38098U 12011A   26159.14411939 -.00000044  00000+0  00000+0 0  9995
2 38098   0.0228  63.7498 0001611   3.9804 312.7921  1.00273351  7095
INTELSAT 19 (IS-19)     
1 38356U 12030A   26158.59237112 -.00000042  00000+0  00000+0 0  9998
2 38356   0.0106  32.4422 0003092  51.8353 190.9735  1.00271459 50356
INTELSAT 20 (IS-20)     
1 38740U 12043A   26159.07212127 -.00000008  00000+0  00000+0 0  9994
2 38740   0.0081  87.6182 0001576 100.3071 163.0027  1.00266075 50658
